{"type": "FeatureCollection", "features": [ {"type": "Feature", "properties": {"norad_id": 66819, "name": "STARLINK-35989", "group": "last-30-days", "lat": 42.79770540675666, "lon": -80.15185205895524, "alt_km": 393.21332445743974, "timestamp": "2025-12-21T22:41:40.165598+00:00", "meta": {"OBJECT_NAME": "STARLINK-35989", "OBJECT_ID": "2025-278AE", "EPOCH": "2025-12-21T14:00:01.999872", "MEAN_MOTION": 15.57726821, "ECCENTRICITY": 0.00012449, "INCLINATION": 42.9995, "RA_OF_ASC_NODE": 198.4349, "ARG_OF_PERICENTER": 255.3106, "MEAN_ANOMALY": 317.1567, "EPHEMERIS_TYPE": 0, "CLASSIFICATION_TYPE": "U", "NORAD_CAT_ID": 66819, "ELEMENT_SET_NO": 999, "REV_AT_EPOCH": 438, "BSTAR": -0.029807627, "MEAN_MOTION_DOT": -0.01992789, "MEAN_MOTION_DDOT": 0}, "tle": {"line1": "1 66819U 25278AE  25355.58335648 -.01992789  00000+0 -29808-1 0  9990", "line2": "2 66819  42.9995 198.4349 0001244 255.3106 317.1567 15.57726821  4380"}}, "geometry": {"type": "Point", "coordinates": [-80.15185205895524, 42.79770540675666]}}, {"type": "Feature", "properties": {"norad_id": 66820, "name": "KOMPSAT-7", "group": "last-30-days", "lat": -6.231922666764178, "lon": -57.50889019957572, "alt_km": 572.600760439449, "timestamp": "2025-12-21T22:41:40.165610+00:00", "meta": {"OBJECT_NAME": "KOMPSAT-7", "OBJECT_ID": "2025-279A", "EPOCH": "2025-12-21T14:43:15.384864", "MEAN_MOTION": 15.00649834, "ECCENTRICITY": 0.00110253, "INCLINATION": 97.6444, "RA_OF_ASC_NODE": 301.3241, "ARG_OF_PERICENTER": 234.4274, "MEAN_ANOMALY": 125.5923, "EPHEMERIS_TYPE": 0, "CLASSIFICATION_TYPE": "U", "NORAD_CAT_ID": 66820, "ELEMENT_SET_NO": 999, "REV_AT_EPOCH": 298, "BSTAR": 0.00020207224, "MEAN_MOTION_DOT": 2.499e-05, "MEAN_MOTION_DDOT": 0}, "tle": {"line1": "1 66820U 25279A   25355.61337251  .00002499  00000+0  20207-3 0  9992", "line2": "2 66820  97.6444 301.3241 0011025 234.4274 125.5923 15.00649834  2983"}}, "geometry": {"type": "Point", "coordinates": [-57.50889019957572, -6.231922666764178]}}, {"type": "Feature", "properties": {"norad_id": 66821, "name": "STARLINK-35966", "group": "last-30-days", "lat": -33.24208408224227, "lon": 159.39102663044505, "alt_km": 413.74457179714955, "timestamp": "2025-12-21T22:41:40.165620+00:00", "meta": {"OBJECT_NAME": "STARLINK-35966", "OBJECT_ID": "2025-280A", "EPOCH": "2025-12-21T14:00:01.999872", "MEAN_MOTION": 15.52499222, "ECCENTRICITY": 0.00033164, "INCLINATION": 70, "RA_OF_ASC_NODE": 174.1943, "ARG_OF_PERICENTER": 268.3922, "MEAN_ANOMALY": 191.9802, "EPHEMERIS_TYPE": 0, "CLASSIFICATION_TYPE": "U", "NORAD_CAT_ID": 66821, "ELEMENT_SET_NO": 999, "REV_AT_EPOCH": 431, "BSTAR": 0.00043908813, "MEAN_MOTION_DOT": 0.00026918, "MEAN_MOTION_DDOT": 0}, "tle": {"line1": "1 66821U 25280A   25355.58335648  .00026918  00000+0  43909-3 0  9995", "line2": "2 66821  70.0000 174.1943 0003316 268.3922 191.9802 15.52499222  4315"}}, "geometry": {"type": "Point", "coordinates": [159.39102663044505, -33.24208408224227]}}, {"type": "Feature", "properties": {"norad_id": 66822, "name": "STARLINK-35958", "group": "last-30-days", "lat": -31.488266108385304, "lon": 160.3091201970089, "alt_km": 413.7364768976804, "timestamp": "2025-12-21T22:41:40.165630+00:00", "meta": {"OBJECT_NAME": "STARLINK-35958", "OBJECT_ID": "2025-280B", "EPOCH": "2025-12-21T14:00:01.999872", "MEAN_MOTION": 15.52492117, "ECCENTRICITY": 0.0003344, "INCLINATION": 69.9997, "RA_OF_ASC_NODE": 174.1922, "ARG_OF_PERICENTER": 267.299, "MEAN_ANOMALY": 194.9983, "EPHEMERIS_TYPE": 0, "CLASSIFICATION_TYPE": "U", "NORAD_CAT_ID": 66822, "ELEMENT_SET_NO": 999, "REV_AT_EPOCH": 431, "BSTAR": 0.00055720755, "MEAN_MOTION_DOT": 0.00034227, "MEAN_MOTION_DDOT": 0}, "tle": {"line1": "1 66822U 25280B   25355.58335648  .00034227  00000+0  55721-3 0  9993", "line2": "2 66822  69.9997 174.1922 0003344 267.2990 194.9983 15.52492117  4318"}}, "geometry": {"type": "Point", "coordinates": [160.3091201970089, -31.488266108385304]}}, {"type": "Feature", "properties": {"norad_id": 66823, "name": "STARLINK-35957", "group": "last-30-days", "lat": -29.728204353722184, "lon": 161.19215635438064, "alt_km": 413.71753733968217, "timestamp": "2025-12-21T22:41:40.165640+00:00", "meta": {"OBJECT_NAME": "STARLINK-35957", "OBJECT_ID": "2025-280C", "EPOCH": "2025-12-21T14:00:01.999872", "MEAN_MOTION": 15.52486194, "ECCENTRICITY": 0.00032533, "INCLINATION": 69.9997, "RA_OF_ASC_NODE": 174.1888, "ARG_OF_PERICENTER": 267.2522, "MEAN_ANOMALY": 196.9684, "EPHEMERIS_TYPE": 0, "CLASSIFICATION_TYPE": "U", "NORAD_CAT_ID": 66823, "ELEMENT_SET_NO": 999, "REV_AT_EPOCH": 431, "BSTAR": 0.00072778262, "MEAN_MOTION_DOT": 0.00044806, "MEAN_MOTION_DDOT": 0}, "tle": {"line1": "1 66823U 25280C   25355.58335648  .00044806  00000+0  72778-3 0  9999", "line2": "2 66823  69.9997 174.1888 0003253 267.2522 196.9684 15.52486194  4318"}}, "geometry": {"type": "Point", "coordinates": [161.19215635438064, -29.728204353722184]}}, {"type": "Feature", "properties": {"norad_id": 66824, "name": "STARLINK-35896", "group": "last-30-days", "lat": -27.96780679611811, "lon": 162.0440149138337, "alt_km": 413.6542843549032, "timestamp": "2025-12-21T22:41:40.165650+00:00", "meta": {"OBJECT_NAME": "STARLINK-35896", "OBJECT_ID": "2025-280D", "EPOCH": "2025-12-21T14:00:01.999872", "MEAN_MOTION": 15.52490866, "ECCENTRICITY": 0.00032453, "INCLINATION": 69.9997, "RA_OF_ASC_NODE": 174.1874, "ARG_OF_PERICENTER": 267.984, "MEAN_ANOMALY": 198.1499, "EPHEMERIS_TYPE": 0, "CLASSIFICATION_TYPE": "U", "NORAD_CAT_ID": 66824, "ELEMENT_SET_NO": 999, "REV_AT_EPOCH": 431, "BSTAR": 0.00054254585, "MEAN_MOTION_DOT": 0.00033316, "MEAN_MOTION_DDOT": 0}, "tle": {"line1": "1 66824U 25280D   25355.58335648  .00033316  00000+0  54255-3 0  9994", "line2": "2 66824  69.9997 174.1874 0003245 267.9840 198.1499 15.52490866  4314"}}, "geometry": {"type": "Point", "coordinates": [162.0440149138337, -27.96780679611811]}}, {"type": "Feature", "properties": {"norad_id": 66825, "name": "STARLINK-35476", "group": "last-30-days", "lat": -26.196751694388215, "lon": 162.86911394852592, "alt_km": 413.61880798159746, "timestamp": "2025-12-21T22:41:40.165660+00:00", "meta": {"OBJECT_NAME": "STARLINK-35476", "OBJECT_ID": "2025-280E", "EPOCH": "2025-12-21T14:00:01.999872", "MEAN_MOTION": 15.52486785, "ECCENTRICITY": 0.00032386, "INCLINATION": 69.9999, "RA_OF_ASC_NODE": 174.184, "ARG_OF_PERICENTER": 266.902, "MEAN_ANOMALY": 201.1505, "EPHEMERIS_TYPE": 0, "CLASSIFICATION_TYPE": "U", "NORAD_CAT_ID": 66825, "ELEMENT_SET_NO": 999, "REV_AT_EPOCH": 416, "BSTAR": 0.00075557157, "MEAN_MOTION_DOT": 0.00046534, "MEAN_MOTION_DDOT": 0}, "tle": {"line1": "1 66825U 25280E   25355.58335648  .00046534  00000+0  75557-3 0  9999", "line2": "2 66825  69.9999 174.1840 0003238 266.9020 201.1505 15.52486785  4162"}}, "geometry": {"type": "Point", "coordinates": [162.86911394852592, -26.196751694388215]}}, {"type": "Feature", "properties": {"norad_id": 66826, "name": "STARLINK-35898", "group": "last-30-days", "lat": -24.42722140711297, "lon": 163.66839318180234, "alt_km": 413.5259714039121, "timestamp": "2025-12-21T22:41:40.165671+00:00", "meta": {"OBJECT_NAME": "STARLINK-35898", "OBJECT_ID": "2025-280F", "EPOCH": "2025-12-21T14:00:01.999872", "MEAN_MOTION": 15.52494646, "ECCENTRICITY": 0.00032664, "INCLINATION": 69.9999, "RA_OF_ASC_NODE": 174.1825, "ARG_OF_PERICENTER": 267.8666, "MEAN_ANOMALY": 202.0963, "EPHEMERIS_TYPE": 0, "CLASSIFICATION_TYPE": "U", "NORAD_CAT_ID": 66826, "ELEMENT_SET_NO": 999, "REV_AT_EPOCH": 431, "BSTAR": 0.00048780361, "MEAN_MOTION_DOT": 0.00029929, "MEAN_MOTION_DDOT": 0}, "tle": {"line1": "1 66826U 25280F   25355.58335648  .00029929  00000+0  48780-3 0  9997", "line2": "2 66826  69.9999 174.1825 0003266 267.8666 202.0963 15.52494646  4313"}}, "geometry": {"type": "Point", "coordinates": [163.66839318180234, -24.42722140711297]}}, {"type": "Feature", "properties": {"norad_id": 66827, "name": "STARLINK-35959", "group": "last-30-days", "lat": -22.651166238865024, "lon": 164.4460387673157, "alt_km": 413.4651456277479, "timestamp": "2025-12-21T22:41:40.165682+00:00", "meta": {"OBJECT_NAME": "STARLINK-35959", "OBJECT_ID": "2025-280G", "EPOCH": "2025-12-21T14:00:01.999872", "MEAN_MOTION": 15.52495764, "ECCENTRICITY": 0.00032303, "INCLINATION": 69.9999, "RA_OF_ASC_NODE": 174.1805, "ARG_OF_PERICENTER": 267.9005, "MEAN_ANOMALY": 203.9779, "EPHEMERIS_TYPE": 0, "CLASSIFICATION_TYPE": "U", "NORAD_CAT_ID": 66827, "ELEMENT_SET_NO": 999, "REV_AT_EPOCH": 431, "BSTAR": 0.0004483327, "MEAN_MOTION_DOT": 0.00027486, "MEAN_MOTION_DDOT": 0}, "tle": {"line1": "1 66827U 25280G   25355.58335648  .00027486  00000+0  44833-3 0  9999", "line2": "2 66827  69.9999 174.1805 0003230 267.9005 203.9779 15.52495764  4318"}}, "geometry": {"type": "Point", "coordinates": [164.4460387673157, -22.651166238865024]}}, {"type": "Feature", "properties": {"norad_id": 66828, "name": "STARLINK-35982", "group": "last-30-days", "lat": -19.085270265846997, "lon": 165.94414872761644, "alt_km": 413.2750770219145, "timestamp": "2025-12-21T22:41:40.165693+00:00", "meta": {"OBJECT_NAME": "STARLINK-35982", "OBJECT_ID": "2025-280H", "EPOCH": "2025-12-21T14:00:01.999872", "MEAN_MOTION": 15.52492652, "ECCENTRICITY": 0.00032211, "INCLINATION": 69.9999, "RA_OF_ASC_NODE": 174.1757, "ARG_OF_PERICENTER": 268.6861, "MEAN_ANOMALY": 207.0284, "EPHEMERIS_TYPE": 0, "CLASSIFICATION_TYPE": "U", "NORAD_CAT_ID": 66828, "ELEMENT_SET_NO": 999, "REV_AT_EPOCH": 431, "BSTAR": 0.00052230451, "MEAN_MOTION_DOT": 0.00032064, "MEAN_MOTION_DDOT": 0}, "tle": {"line1": "1 66828U 25280H   25355.58335648  .00032064  00000+0  52230-3 0  9998", "line2": "2 66828  69.9999 174.1757 0003221 268.6861 207.0284 15.52492652  4312"}}, "geometry": {"type": "Point", "coordinates": [165.94414872761644, -19.085270265846997]}}]}